0 METEOR 1-27 DEB
1 38533U 77024D   13276.75876574  .00002656  00000-0  13822-2 0   549
2 38533 081.2486 307.7523 0048272 125.7055 234.9109 14.14047959136651
0 METEOR 1-27 DEB
1 38533U 77024D   13281.78257283  .00002825  00000-0  14627-2 0   551
2 38533 081.2500 302.8296 0047800 111.4799 249.1395 14.14076385137363
0 METEOR 1-27 DEB
1 38533U 77024D   13284.32982277  .00002981  00000-0  15439-2 0   568
2 38533 081.2493 300.3379 0047437 104.2276 256.4408 14.14092909137721
0 METEOR 1-27 DEB
1 38533U 77024D   13290.34403023  .00003301  00000-0  17081-2 0   577
2 38533 081.2500 294.4493 0048457 088.9424 271.8411 14.14135332138573
0 METEOR 1-27 DEB
1 38533U 77024D   13290.69777901  .00003336  00000-0  17257-2 0   588
2 38533 081.2480 294.0994 0048791 088.6185 272.0727 14.14138322138625
